{
  "type": "FeatureCollection",
  "features": [
    {
      "type": "Feature",
      "properties": {
        "norad_id": 43207,
        "name": "BEIDOU-3 M4 (C22)",
        "group": "beidou",
        "lat": -50.02829248449036,
        "lon": 17.190597336796873,
        "alt_km": 21531.10210537375,
        "timestamp": "2025-12-12T05:47:29.036156+00:00",
        "meta_object_name": "BEIDOU-3 M4 (C22)",
        "meta_object_id": "2018-018A",
        "meta_epoch": "2025-12-10T17:31:13.270944",
        "meta_mean_motion": 1.86230984,
        "meta_eccentricity": 0.00041357,
        "meta_inclination": 56.4844,
        "meta_ra_of_asc_node": 69.3703,
        "meta_arg_of_pericenter": 10.5342,
        "meta_mean_anomaly": 349.4961,
        "meta_ephemeris_type": 0,
        "meta_classification_type": "U",
        "meta_norad_cat_id": 43207,
        "meta_element_set_no": 999,
        "meta_rev_at_epoch": 5323,
        "meta_bstar": 0,
        "meta_mean_motion_dot": -5.7e-07,
        "meta_mean_motion_ddot": 0,
        "tle_line1": "1 43207U 18018A   25344.73001471 -.00000057  00000+0  00000+0 0  9996",
        "tle_line2": "2 43207  56.4844  69.3703 0004135  10.5342 349.4961  1.86230984 53235"
      },
      "geometry": {
        "type": "Point",
        "coordinates": [
          17.190597336796873,
          -50.02829248449036
        ]
      }
    },
    {
      "type": "Feature",
      "properties": {
        "norad_id": 43208,
        "name": "BEIDOU-3 M3 (C21)",
        "group": "beidou",
        "lat": -50.91609154690684,
        "lon": -56.10022384689985,
        "alt_km": 21526.968069539445,
        "timestamp": "2025-12-12T05:47:29.036168+00:00",
        "meta_object_name": "BEIDOU-3 M3 (C21)",
        "meta_object_id": "2018-018B",
        "meta_epoch": "2025-12-10T19:07:00.567840",
        "meta_mean_motion": 1.8623124,
        "meta_eccentricity": 0.00065639,
        "meta_inclination": 56.484,
        "meta_ra_of_asc_node": 69.3721,
        "meta_arg_of_pericenter": 317.0111,
        "meta_mean_anomaly": 42.9593,
        "meta_ephemeris_type": 0,
        "meta_classification_type": "U",
        "meta_norad_cat_id": 43208,
        "meta_element_set_no": 999,
        "meta_rev_at_epoch": 5323,
        "meta_bstar": 0,
        "meta_mean_motion_dot": -5.7e-07,
        "meta_mean_motion_ddot": 0,
        "tle_line1": "1 43208U 18018B   25344.79653435 -.00000057  00000+0  00000+0 0  9996",
        "tle_line2": "2 43208  56.4840  69.3721 0006563 317.0111  42.9593  1.86231240 53230"
      },
      "geometry": {
        "type": "Point",
        "coordinates": [
          -56.10022384689985,
          -50.91609154690684
        ]
      }
    },
    {
      "type": "Feature",
      "properties": {
        "norad_id": 43245,
        "name": "BEIDOU-3 M9 (C29)",
        "group": "beidou",
        "lat": 52.14514581074667,
        "lon": 59.207668515066594,
        "alt_km": 21526.830990039132,
        "timestamp": "2025-12-12T05:47:29.036179+00:00",
        "meta_object_name": "BEIDOU-3 M9 (C29)",
        "meta_object_id": "2018-029A",
        "meta_epoch": "2025-12-09T09:38:36.109248",
        "meta_mean_motion": 1.86227964,
        "meta_eccentricity": 0.00016746,
        "meta_inclination": 54.3687,
        "meta_ra_of_asc_node": 306.5834,
        "meta_arg_of_pericenter": 274.0787,
        "meta_mean_anomaly": 85.8921,
        "meta_ephemeris_type": 0,
        "meta_classification_type": "U",
        "meta_norad_cat_id": 43245,
        "meta_element_set_no": 999,
        "meta_rev_at_epoch": 5236,
        "meta_bstar": 0,
        "meta_mean_motion_dot": -7.6e-07,
        "meta_mean_motion_ddot": 0,
        "tle_line1": "1 43245U 18029A   25343.40180682 -.00000076  00000+0  00000+0 0  9996",
        "tle_line2": "2 43245  54.3687 306.5834 0001674 274.0787  85.8921  1.86227964 52369"
      },
      "geometry": {
        "type": "Point",
        "coordinates": [
          59.207668515066594,
          52.14514581074667
        ]
      }
    },
    {
      "type": "Feature",
      "properties": {
        "norad_id": 43246,
        "name": "BEIDOU-3 M10 (C30)",
        "group": "beidou",
        "lat": 26.129067085588545,
        "lon": 105.90730682266255,
        "alt_km": 21534.49112496174,
        "timestamp": "2025-12-12T05:47:29.036190+00:00",
        "meta_object_name": "BEIDOU-3 M10 (C30)",
        "meta_object_id": "2018-029B",
        "meta_epoch": "2025-12-10T09:51:50.083776",
        "meta_mean_motion": 1.86228788,
        "meta_eccentricity": 0.00039909,
        "meta_inclination": 54.3654,
        "meta_ra_of_asc_node": 306.5763,
        "meta_arg_of_pericenter": 359.52,
        "meta_mean_anomaly": 0.4707,
        "meta_ephemeris_type": 0,
        "meta_classification_type": "U",
        "meta_norad_cat_id": 43246,
        "meta_element_set_no": 999,
        "meta_rev_at_epoch": 5236,
        "meta_bstar": 0,
        "meta_mean_motion_dot": -8.1e-07,
        "meta_mean_motion_ddot": 0,
        "tle_line1": "1 43246U 18029B   25344.41099634 -.00000081  00000+0  00000+0 0  9991",
        "tle_line2": "2 43246  54.3654 306.5763 0003990 359.5200   0.4707  1.86228788 52367"
      },
      "geometry": {
        "type": "Point",
        "coordinates": [
          105.90730682266255,
          26.129067085588545
        ]
      }
    },
    {
      "type": "Feature",
      "properties": {
        "norad_id": 43539,
        "name": "BEIDOU-2 IGSO-7 (C16)",
        "group": "beidou",
        "lat": 48.83065082259016,
        "lon": -68.17168289873342,
        "alt_km": 35987.99826717157,
        "timestamp": "2025-12-12T05:47:29.036201+00:00",
        "meta_object_name": "BEIDOU-2 IGSO-7 (C16)",
        "meta_object_id": "2018-057A",
        "meta_epoch": "2025-12-11T21:50:21.547104",
        "meta_mean_motion": 1.00257146,
        "meta_eccentricity": 0.0092462,
        "meta_inclination": 55.1747,
        "meta_ra_of_asc_node": 164.678,
        "meta_arg_of_pericenter": 235.1865,
        "meta_mean_anomaly": 119.5447,
        "meta_ephemeris_type": 0,
        "meta_classification_type": "U",
        "meta_norad_cat_id": 43539,
        "meta_element_set_no": 999,
        "meta_rev_at_epoch": 2724,
        "meta_bstar": 0,
        "meta_mean_motion_dot": -4.7e-07,
        "meta_mean_motion_ddot": 0,
        "tle_line1": "1 43539U 18057A   25345.90997161 -.00000047  00000+0  00000+0 0  9996",
        "tle_line2": "2 43539  55.1747 164.6780 0092462 235.1865 119.5447  1.00257146 27242"
      },
      "geometry": {
        "type": "Point",
        "coordinates": [
          -68.17168289873342,
          48.83065082259016
        ]
      }
    },
    {
      "type": "Feature",
      "properties": {
        "norad_id": 43581,
        "name": "BEIDOU-3 M5 (C23)",
        "group": "beidou",
        "lat": -2.8425265419624344,
        "lon": -173.39615586257287,
        "alt_km": 21523.010103855817,
        "timestamp": "2025-12-12T05:47:29.036228+00:00",
        "meta_object_name": "BEIDOU-3 M5 (C23)",
        "meta_object_id": "2018-062A",
        "meta_epoch": "2025-12-11T17:01:48.232128",
        "meta_mean_motion": 1.86228797,
        "meta_eccentricity": 0.00021159,
        "meta_inclination": 54.089,
        "meta_ra_of_asc_node": 188.6781,
        "meta_arg_of_pericenter": 352.1454,
        "meta_mean_anomaly": 7.9101,
        "meta_ephemeris_type": 0,
        "meta_classification_type": "U",
        "meta_norad_cat_id": 43581,
        "meta_element_set_no": 999,
        "meta_rev_at_epoch": 5014,
        "meta_bstar": 0,
        "meta_mean_motion_dot": 7.1e-07,
        "meta_mean_motion_ddot": 0,
        "tle_line1": "1 43581U 18062A   25345.70958602  .00000071  00000+0  00000+0 0  9990",
        "tle_line2": "2 43581  54.0890 188.6781 0002115 352.1454   7.9101  1.86228797 50149"
      },
      "geometry": {
        "type": "Point",
        "coordinates": [
          -173.39615586257287,
          -2.8425265419624344
        ]
      }
    },
    {
      "type": "Feature",
      "properties": {
        "norad_id": 43582,
        "name": "BEIDOU-3 M6 (C24)",
        "group": "beidou",
        "lat": 54.03846470790444,
        "lon": -84.00795005586852,
        "alt_km": 21505.38673150712,
        "timestamp": "2025-12-12T05:47:29.036241+00:00",
        "meta_object_name": "BEIDOU-3 M6 (C24)",
        "meta_object_id": "2018-062B",
        "meta_epoch": "2025-12-11T13:44:38.713920",
        "meta_mean_motion": 1.86229866,
        "meta_eccentricity": 0.00078374,
        "meta_inclination": 54.0887,
        "meta_ra_of_asc_node": 188.6718,
        "meta_arg_of_pericenter": 47.121,
        "meta_mean_anomaly": 313.0034,
        "meta_ephemeris_type": 0,
        "meta_classification_type": "U",
        "meta_norad_cat_id": 43582,
        "meta_element_set_no": 999,
        "meta_rev_at_epoch": 5014,
        "meta_bstar": 0,
        "meta_mean_motion_dot": 6.9e-07,
        "meta_mean_motion_ddot": 0,
        "tle_line1": "1 43582U 18062B   25345.57267030  .00000069  00000+0  00000+0 0  9991",
        "tle_line2": "2 43582  54.0887 188.6718 0007837  47.1210 313.0034  1.86229866 50147"
      },
      "geometry": {
        "type": "Point",
        "coordinates": [
          -84.00795005586852,
          54.03846470790444
        ]
      }
    }
  ]
}